OBJECT_NAME,OBJECT_ID,EPOCH,MEAN_MOTION,ECCENTRICITY,INCLINATION,RA_OF_ASC_NODE,ARG_OF_PERICENTER,MEAN_ANOMALY,EPHEMERIS_TYPE,CLASSIFICATION_TYPE,NORAD_CAT_ID,ELEMENT_SET_NO,REV_AT_EPOCH,BSTAR,MEAN_MOTION_DOT,MEAN_MOTION_DDOT
GPS BIIR-5  (PRN 22),2000-040A,2026-05-14T08:00:55.653408,2.00557366,.01214183,54.8571,216.5069,302.3490,18.3748,0,U,26407,999,18926,0,.34E-6,0
GPS BIIR-8  (PRN 16),2003-005A,2026-05-14T06:04:52.984128,2.00562334,.0148019,54.8882,216.3171,53.0100,345.0409,0,U,27663,999,17063,0,.33E-6,0
GPS BIIR-11 (PRN 19),2004-009A,2026-05-13T17:48:07.189632,2.00555769,.01145365,54.8595,277.0782,171.5512,11.0195,0,U,28190,999,16225,0,-.36E-6,0
GPS BIIR-13 (PRN 02),2004-045A,2026-05-14T03:35:42.105696,2.00554278,.01699043,55.1560,326.2669,315.5113,226.7446,0,U,28474,999,15774,0,-.51E-6,0
GPS BIIRM-1 (PRN 17),2005-038A,2026-05-13T10:04:05.856672,2.00568027,.01277101,54.9077,274.5799,295.9425,41.1639,0,U,28874,999,15113,0,-.34E-6,0
GPS BIIRM-2 (PRN 31),2006-042A,2026-05-14T01:59:38.607072,2.00571763,.01061558,54.7055,152.6929,53.7210,300.4614,0,U,29486,999,14370,0,.115E-5,0
GPS BIIRM-3 (PRN 12),2006-052A,2026-05-13T00:26:12.608736,2.00556196,.00859287,54.9399,215.4003,90.4979,270.5379,0,U,29601,999,14270,0,.23E-6,0
GPS BIIRM-4 (PRN 15),2007-047A,2026-05-13T07:45:08.928864,2.00556966,.01652729,54.0705,81.5020,86.7428,275.1201,0,U,32260,999,13611,0,.5E-7,0
GPS BIIRM-5 (PRN 29),2007-062A,2026-05-13T15:22:53.114592,2.00557902,.00350328,55.0606,275.5408,163.3905,193.1402,0,U,32384,999,13481,0,-.35E-6,0
GPS BIIRM-6 (PRN 07),2008-012A,2026-05-14T05:37:33.628800,2.00571490,.02103832,54.4916,151.2812,247.3818,110.4365,0,U,32711,999,13307,0,.114E-5,0
GPS BIIRM-8 (PRN 05),2009-043A,2026-05-13T09:01:29.081856,2.00556103,.00532966,56.1893,28.8193,81.8694,30.5658,0,U,35752,999,12266,0,-.72E-6,0
GPS BIIF-1  (PRN 25),2010-022A,2026-05-13T13:30:46.185984,2.00560678,.01264652,54.2740,209.9570,66.1117,298.9101,0,U,36585,999,11690,0,.38E-6,0
GPS BIIF-3  (PRN 24),2012-053A,2026-05-13T09:59:55.326048,2.00566885,.01785837,53.5788,145.0238,65.3053,296.5958,0,U,38833,999,9874,0,.113E-5,0
GPS BIIF-4  (PRN 27),2013-023A,2026-05-13T06:46:57.447840,2.00563631,.01418226,54.5327,270.3950,50.8306,310.3961,0,U,39166,999,9518,0,-.33E-6,0
GPS BIIF-5  (PRN 30),2014-008A,2026-05-13T18:46:36.042240,2.00557581,.00840739,53.6482,150.7230,230.5998,128.7111,0,U,39533,999,8899,0,.113E-5,0
GPS BIIF-6  (PRN 06),2014-026A,2026-05-14T01:23:19.328640,2.00563452,.00386186,56.5142,332.8462,326.8645,32.9252,0,U,39741,999,8785,0,-.51E-6,0
GPS BIIF-7  (PRN 09),2014-045A,2026-05-14T03:34:29.957376,2.00556087,.00320826,55.3318,89.8204,118.7363,241.5584,0,U,40105,999,8539,0,.19E-6,0
GPS BIIF-8  (PRN 03),2014-068A,2026-05-14T00:31:06.499200,2.00573953,.00660151,56.9651,32.2713,69.3905,291.3455,0,U,40294,999,8452,0,-.7E-6,0
GPS BIIF-9  (PRN 26),2015-013A,2026-05-14T03:46:45.426144,2.00553381,.01089884,53.1712,205.5852,40.0243,320.8464,0,U,40534,999,8114,0,.5E-6,0
GPS BIIF-10 (PRN 08),2015-033A,2026-05-13T19:37:57.192384,2.00557945,.01150007,54.0105,268.5030,30.0544,330.5749,0,U,40730,999,7930,0,-.33E-6,0
GPS BIIF-11 (PRN 10),2015-062A,2026-05-13T09:02:36.266496,2.00566928,.01112929,56.9370,32.1525,231.3730,127.6556,0,U,41019,999,7713,0,-.7E-6,0
GPS BIIF-12 (PRN 32),2016-007A,2026-05-12T23:12:23.596128,2.00553357,.00961244,55.5031,90.8552,247.2479,111.7128,0,U,41328,999,7513,0,.32E-6,0
GPS BIII-1  (PRN 04),2018-109A,2026-05-13T06:37:27.808320,2.00560030,.00380331,55.6614,93.5638,198.7177,277.7554,0,U,43873,999,5437,0,.36E-6,0
GPS BIII-2  (PRN 18),2019-056A,2026-05-14T06:01:24.828384,2.00569226,.0060363,55.6530,332.4919,197.4131,165.7347,0,U,44506,999,4939,0,-.53E-6,0
GPS BIII-3  (PRN 23),2020-041A,2026-05-12T15:45:58.319136,2.00559403,.00626046,56.6475,30.3230,204.7790,27.1781,0,U,45854,999,4332,0,-.71E-6,0
GPS BIII-4  (PRN 14),2020-078A,2026-05-14T07:23:21.999264,2.00564762,.00720443,53.9846,212.1531,206.2235,113.0392,0,U,46826,999,4082,0,.4E-6,0
GPS BIII-5  (PRN 11),2021-054A,2026-05-14T07:03:04.441824,2.00571054,.00244743,55.1894,333.8225,229.2573,265.6938,0,U,48859,999,3607,0,-.55E-6,0
GPS BIII-6  (PRN 28),2023-009A,2026-05-13T13:13:40.325952,2.00573844,.000599,55.1171,149.8805,314.6521,41.8863,0,U,55268,999,2454,0,.117E-5,0
GPS BIII-7  (PRN 01),2024-242A,2026-05-12T04:30:27.603072,2.00570893,.00170843,54.8657,335.6414,3.1785,171.5342,0,U,62339,999,1053,0,-.54E-6,0
GPS BIII-8  (PRN 21),2025-116A,2026-04-30T12:37:38.318016,2.00549603,.0009186,55.2044,33.0485,336.4638,239.4024,0,U,64202,999,691,0,-.106E-5,0
GPS BIII-9  (PRN 20),2026-017A,2026-05-13T07:09:15.934176,2.00571815,.00230033,55.0667,90.1549,255.4228,104.2985,0,U,67588,999,43091,0,.27E-6,0
